{
  "type": "FeatureCollection",
  "features": [
    {
      "type": "Feature",
      "properties": {
        "norad_id": 31542,
        "name": "FENGYUN 1C DEB",
        "group": "fengyun-1c-debris",
        "lat": -55.27967743960977,
        "lon": 68.61889369392034,
        "alt_km": 848.8840522381615,
        "timestamp": "2025-12-27T22:26:48.885958+00:00",
        "meta_object_name": "FENGYUN 1C DEB",
        "meta_object_id": "1999-025BYH",
        "meta_epoch": "2025-12-26T21:23:52.804032",
        "meta_mean_motion": 14.22874035,
        "meta_eccentricity": 0.0047919,
        "meta_inclination": 98.7303,
        "meta_ra_of_asc_node": 54.7729,
        "meta_arg_of_pericenter": 167.054,
        "meta_mean_anomaly": 193.1881,
        "meta_ephemeris_type": 0,
        "meta_classification_type": "U",
        "meta_norad_cat_id": 31542,
        "meta_element_set_no": 999,
        "meta_rev_at_epoch": 96141,
        "meta_bstar": 0.00143,
        "meta_mean_motion_dot": 3.208e-05,
        "meta_mean_motion_ddot": 0,
        "tle_line1": "1 31542U 99025BYH 25360.89158338  .00003208  00000+0  14300-2 0  9993",
        "tle_line2": "2 31542  98.7303  54.7729 0047919 167.0540 193.1881 14.22874035961412"
      },
      "geometry": {
        "type": "Point",
        "coordinates": [
          68.61889369392034,
          -55.27967743960977
        ]
      }
    },
    {
      "type": "Feature",
      "properties": {
        "norad_id": 31544,
        "name": "FENGYUN 1C DEB",
        "group": "fengyun-1c-debris",
        "lat": -67.3427791112279,
        "lon": 74.87832557705521,
        "alt_km": 841.9161979722767,
        "timestamp": "2025-12-27T22:26:48.885968+00:00",
        "meta_object_name": "FENGYUN 1C DEB",
        "meta_object_id": "1999-025BYK",
        "meta_epoch": "2025-12-27T02:23:58.122528",
        "meta_mean_motion": 14.14374014,
        "meta_eccentricity": 0.00324821,
        "meta_inclination": 98.8279,
        "meta_ra_of_asc_node": 52.1961,
        "meta_arg_of_pericenter": 227.7111,
        "meta_mean_anomaly": 132.1307,
        "meta_ephemeris_type": 0,
        "meta_classification_type": "U",
        "meta_norad_cat_id": 31544,
        "meta_element_set_no": 999,
        "meta_rev_at_epoch": 95960,
        "meta_bstar": 0.00078526359,
        "meta_mean_motion_dot": 1.466e-05,
        "meta_mean_motion_ddot": 0,
        "tle_line1": "1 31544U 99025BYK 25361.09997827  .00001466  00000+0  78526-3 0  9997",
        "tle_line2": "2 31544  98.8279  52.1961 0032482 227.7111 132.1307 14.14374014959601"
      },
      "geometry": {
        "type": "Point",
        "coordinates": [
          74.87832557705521,
          -67.3427791112279
        ]
      }
    },
    {
      "type": "Feature",
      "properties": {
        "norad_id": 31546,
        "name": "FENGYUN 1C DEB",
        "group": "fengyun-1c-debris",
        "lat": 28.522519458931953,
        "lon": 65.73983250552271,
        "alt_km": 800.358853394052,
        "timestamp": "2025-12-27T22:26:48.885978+00:00",
        "meta_object_name": "FENGYUN 1C DEB",
        "meta_object_id": "1999-025BYM",
        "meta_epoch": "2025-12-26T22:31:21.660096",
        "meta_mean_motion": 14.13220675,
        "meta_eccentricity": 0.014533,
        "meta_inclination": 98.243,
        "meta_ra_of_asc_node": 69.3395,
        "meta_arg_of_pericenter": 96.2085,
        "meta_mean_anomaly": 265.5667,
        "meta_ephemeris_type": 0,
        "meta_classification_type": "U",
        "meta_norad_cat_id": 31546,
        "meta_element_set_no": 999,
        "meta_rev_at_epoch": 94989,
        "meta_bstar": 0.0016567,
        "meta_mean_motion_dot": 3.394e-05,
        "meta_mean_motion_ddot": 0,
        "tle_line1": "1 31546U 99025BYM 25360.93844514  .00003394  00000+0  16567-2 0  9993",
        "tle_line2": "2 31546  98.2430  69.3395 0145330  96.2085 265.5667 14.13220675949895"
      },
      "geometry": {
        "type": "Point",
        "coordinates": [
          65.73983250552271,
          28.522519458931953
        ]
      }
    },
    {
      "type": "Feature",
      "properties": {
        "norad_id": 31547,
        "name": "FENGYUN 1C DEB",
        "group": "fengyun-1c-debris",
        "lat": -11.438097795471284,
        "lon": 48.04281175104631,
        "alt_km": 848.2587088604787,
        "timestamp": "2025-12-27T22:26:48.885988+00:00",
        "meta_object_name": "FENGYUN 1C DEB",
        "meta_object_id": "1999-025BYN",
        "meta_epoch": "2025-12-27T09:00:12.729312",
        "meta_mean_motion": 14.23217055,
        "meta_eccentricity": 0.0054709,
        "meta_inclination": 99.0856,
        "meta_ra_of_asc_node": 45.6096,
        "meta_arg_of_pericenter": 211.3606,
        "meta_mean_anomaly": 148.4305,
        "meta_ephemeris_type": 0,
        "meta_classification_type": "U",
        "meta_norad_cat_id": 31547,
        "meta_element_set_no": 999,
        "meta_rev_at_epoch": 64225,
        "meta_bstar": 0.0013615,
        "meta_mean_motion_dot": 3.081e-05,
        "meta_mean_motion_ddot": 0,
        "tle_line1": "1 31547U 99025BYN 25361.37514733  .00003081  00000+0  13615-2 0  9994",
        "tle_line2": "2 31547  99.0856  45.6096 0054709 211.3606 148.4305 14.23217055642257"
      },
      "geometry": {
        "type": "Point",
        "coordinates": [
          48.04281175104631,
          -11.438097795471284
        ]
      }
    },
    {
      "type": "Feature",
      "properties": {
        "norad_id": 31550,
        "name": "FENGYUN 1C DEB",
        "group": "fengyun-1c-debris",
        "lat": 17.255465749530092,
        "lon": -1.6372581218056679,
        "alt_km": 875.8307360891959,
        "timestamp": "2025-12-27T22:26:48.885998+00:00",
        "meta_object_name": "FENGYUN 1C DEB",
        "meta_object_id": "1999-025BYR",
        "meta_epoch": "2025-12-27T10:41:32.748288",
        "meta_mean_motion": 14.40284756,
        "meta_eccentricity": 0.019016,
        "meta_inclination": 98.3124,
        "meta_ra_of_asc_node": 0.4896,
        "meta_arg_of_pericenter": 228.2523,
        "meta_mean_anomaly": 130.2275,
        "meta_ephemeris_type": 0,
        "meta_classification_type": "U",
        "meta_norad_cat_id": 31550,
        "meta_element_set_no": 999,
        "meta_rev_at_epoch": 65666,
        "meta_bstar": 0.00066854,
        "meta_mean_motion_dot": 2.572e-05,
        "meta_mean_motion_ddot": 0,
        "tle_line1": "1 31550U 99025BYR 25361.44551792  .00002572  00000+0  66854-3 0  9990",
        "tle_line2": "2 31550  98.3124   0.4896 0190160 228.2523 130.2275 14.40284756656661"
      },
      "geometry": {
        "type": "Point",
        "coordinates": [
          -1.6372581218056679,
          17.255465749530092
        ]
      }
    },
    {
      "type": "Feature",
      "properties": {
        "norad_id": 31552,
        "name": "FENGYUN 1C DEB",
        "group": "fengyun-1c-debris",
        "lat": -66.01973200001987,
        "lon": 143.98166575315977,
        "alt_km": 700.2878049932651,
        "timestamp": "2025-12-27T22:26:48.886029+00:00",
        "meta_object_name": "FENGYUN 1C DEB",
        "meta_object_id": "1999-025BYT",
        "meta_epoch": "2025-12-24T01:44:59.859456",
        "meta_mean_motion": 14.45885518,
        "meta_eccentricity": 0.00856283,
        "meta_inclination": 98.6213,
        "meta_ra_of_asc_node": 120.1143,
        "meta_arg_of_pericenter": 345.73,
        "meta_mean_anomaly": 14.1474,
        "meta_ephemeris_type": 0,
        "meta_classification_type": "U",
        "meta_norad_cat_id": 31552,
        "meta_element_set_no": 999,
        "meta_rev_at_epoch": 96040,
        "meta_bstar": 0.0027047524,
        "meta_mean_motion_dot": 0.00010022,
        "meta_mean_motion_ddot": 0,
        "tle_line1": "1 31552U 99025BYT 25358.07291504  .00010022  00000+0  27048-2 0  9999",
        "tle_line2": "2 31552  98.6213 120.1143 0085628 345.7300  14.1474 14.45885518960409"
      },
      "geometry": {
        "type": "Point",
        "coordinates": [
          143.98166575315977,
          -66.01973200001987
        ]
      }
    },
    {
      "type": "Feature",
      "properties": {
        "norad_id": 31553,
        "name": "FENGYUN 1C DEB",
        "group": "fengyun-1c-debris",
        "lat": 68.16061489122464,
        "lon": 33.90287647317366,
        "alt_km": 763.9268630282513,
        "timestamp": "2025-12-27T22:26:48.886040+00:00",
        "meta_object_name": "FENGYUN 1C DEB",
        "meta_object_id": "1999-025BYU",
        "meta_epoch": "2025-12-27T10:26:23.143776",
        "meta_mean_motion": 14.30280331,
        "meta_eccentricity": 0.0028758,
        "meta_inclination": 99.0042,
        "meta_ra_of_asc_node": 56.6915,
        "meta_arg_of_pericenter": 59.6697,
        "meta_mean_anomaly": 315.7315,
        "meta_ephemeris_type": 0,
        "meta_classification_type": "U",
        "meta_norad_cat_id": 31553,
        "meta_element_set_no": 999,
        "meta_rev_at_epoch": 96120,
        "meta_bstar": 0.001825,
        "meta_mean_motion_dot": 4.711e-05,
        "meta_mean_motion_ddot": 0,
        "tle_line1": "1 31553U 99025BYU 25361.43499009  .00004711  00000+0  18250-2 0  9997",
        "tle_line2": "2 31553  99.0042  56.6915 0028758  59.6697 315.7315 14.30280331961205"
      },
      "geometry": {
        "type": "Point",
        "coordinates": [
          33.90287647317366,
          68.16061489122464
        ]
      }
    }
  ]
}